[{"OBJECT_NAME":"ONEWEB-0637","OBJECT_ID":"2023-043AJ","EPOCH":"2025-12-02T03:23:38.031360","MEAN_MOTION":13.15549173,"ECCENTRICITY":0.00015458,"INCLINATION":87.8979,"RA_OF_ASC_NODE":298.5393,"ARG_OF_PERICENTER":84.7989,"MEAN_ANOMALY":275.3317,"EPHEMERIS_TYPE":0,"CLASSIFICATION_TYPE":"U","NORAD_CAT_ID":56078,"ELEMENT_SET_NO":999,"REV_AT_EPOCH":13052,"BSTAR":-0.00014502739,"MEAN_MOTION_DOT":-4.2e-7,"MEAN_MOTION_DDOT":0},{"OBJECT_NAME":"ONEWEB-0647","OBJECT_ID":"2023-043AK","EPOCH":"2025-12-01T21:48:13.122144","MEAN_MOTION":13.15548277,"ECCENTRICITY":0.00019505,"INCLINATION":87.8979,"RA_OF_ASC_NODE":298.5989,"ARG_OF_PERICENTER":84.431,"MEAN_ANOMALY":275.7043,"EPHEMERIS_TYPE":0,"CLASSIFICATION_TYPE":"U","NORAD_CAT_ID":56079,"ELEMENT_SET_NO":999,"REV_AT_EPOCH":13048,"BSTAR":0.00010028182,"MEAN_MOTION_DOT":5.1e-7,"MEAN_MOTION_DDOT":0},{"OBJECT_NAME":"ONEWEB-0651","OBJECT_ID":"2023-043AL","EPOCH":"2025-12-01T21:41:22.062048","MEAN_MOTION":13.1554979,"ECCENTRICITY":0.00016936,"INCLINATION":87.898,"RA_OF_ASC_NODE":298.5931,"ARG_OF_PERICENTER":89.5232,"MEAN_ANOMALY":270.6092,"EPHEMERIS_TYPE":0,"CLASSIFICATION_TYPE":"U","NORAD_CAT_ID":56080,"ELEMENT_SET_NO":999,"REV_AT_EPOCH":13168,"BSTAR":0.00034165352,"MEAN_MOTION_DOT":1.41e-6,"MEAN_MOTION_DDOT":0},{"OBJECT_NAME":"ONEWEB-0718","OBJECT_ID":"2023-043AM","EPOCH":"2025-12-02T04:52:36.957792","MEAN_MOTION":13.15547774,"ECCENTRICITY":0.00015882,"INCLINATION":87.8979,"RA_OF_ASC_NODE":298.5138,"ARG_OF_PERICENTER":63.822,"MEAN_ANOMALY":296.3073,"EPHEMERIS_TYPE":0,"CLASSIFICATION_TYPE":"U","NORAD_CAT_ID":56081,"ELEMENT_SET_NO":999,"REV_AT_EPOCH":13053,"BSTAR":0.00036083319,"MEAN_MOTION_DOT":1.49e-6,"MEAN_MOTION_DDOT":0},{"OBJECT_NAME":"ONEWEB-0561","OBJECT_ID":"2023-068A","EPOCH":"2025-12-02T05:31:21.948960","MEAN_MOTION":13.207741,"ECCENTRICITY":0.00021321,"INCLINATION":87.9182,"RA_OF_ASC_NODE":313.7301,"ARG_OF_PERICENTER":96.0523,"MEAN_ANOMALY":264.0853,"EPHEMERIS_TYPE":0,"CLASSIFICATION_TYPE":"U","NORAD_CAT_ID":56710,"ELEMENT_SET_NO":999,"REV_AT_EPOCH":12350,"BSTAR":9.1772953e-5,"MEAN_MOTION_DOT":5.0e-7,"MEAN_MOTION_DDOT":0},{"OBJECT_NAME":"ONEWEB-0668","OBJECT_ID":"2023-068B","EPOCH":"2025-12-02T05:12:13.382784","MEAN_MOTION":13.1658963,"ECCENTRICITY":0.00012878,"INCLINATION":87.9048,"RA_OF_ASC_NODE":267.9764,"ARG_OF_PERICENTER":63.8422,"MEAN_ANOMALY":296.2842,"EPHEMERIS_TYPE":0,"CLASSIFICATION_TYPE":"U","NORAD_CAT_ID":56711,"ELEMENT_SET_NO":999,"REV_AT_EPOCH":12586,"BSTAR":3.3609016e-5,"MEAN_MOTION_DOT":2.6e-7,"MEAN_MOTION_DDOT":0},{"OBJECT_NAME":"ONEWEB-0676","OBJECT_ID":"2023-068C","EPOCH":"2025-12-02T05:23:34.137888","MEAN_MOTION":13.16620422,"ECCENTRICITY":0.00020193,"INCLINATION":87.9035,"RA_OF_ASC_NODE":267.9985,"ARG_OF_PERICENTER":82.271,"MEAN_ANOMALY":277.865,"EPHEMERIS_TYPE":0,"CLASSIFICATION_TYPE":"U","NORAD_CAT_ID":56712,"ELEMENT_SET_NO":999,"REV_AT_EPOCH":12578,"BSTAR":0.0081761745,"MEAN_MOTION_DOT":3.141e-5,"MEAN_MOTION_DDOT":0},{"OBJECT_NAME":"ONEWEB-0677","OBJECT_ID":"2023-068D","EPOCH":"2025-12-01T23:48:11.558880","MEAN_MOTION":13.20770327,"ECCENTRICITY":0.00017581,"INCLINATION":87.9197,"RA_OF_ASC_NODE":313.7597,"ARG_OF_PERICENTER":89.9079,"MEAN_ANOMALY":270.2256,"EPHEMERIS_TYPE":0,"CLASSIFICATION_TYPE":"U","NORAD_CAT_ID":56713,"ELEMENT_SET_NO":999,"REV_AT_EPOCH":12377,"BSTAR":-4.8370866e-5,"MEAN_MOTION_DOT":-7.0e-8,"MEAN_MOTION_DDOT":0},{"OBJECT_NAME":"ONEWEB-0678","OBJECT_ID":"2023-068E","EPOCH":"2025-12-01T22:38:24.915552","MEAN_MOTION":13.15547929,"ECCENTRICITY":0.00021408,"INCLINATION":87.8984,"RA_OF_ASC_NODE":298.5405,"ARG_OF_PERICENTER":82.0479,"MEAN_ANOMALY":278.0894,"EPHEMERIS_TYPE":0,"CLASSIFICATION_TYPE":"U","NORAD_CAT_ID":56714,"ELEMENT_SET_NO":999,"REV_AT_EPOCH":12335,"BSTAR":-0.00023634606,"MEAN_MOTION_DOT":-7.6e-7,"MEAN_MOTION_DDOT":0},{"OBJECT_NAME":"ONEWEB-0679","OBJECT_ID":"2023-068F","EPOCH":"2025-12-02T06:13:44.367456","MEAN_MOTION":13.16593096,"ECCENTRICITY":0.00012272,"INCLINATION":87.903,"RA_OF_ASC_NODE":267.9757,"ARG_OF_PERICENTER":85.4591,"MEAN_ANOMALY":274.668,"EPHEMERIS_TYPE":0,"CLASSIFICATION_TYPE":"U","NORAD_CAT_ID":56715,"ELEMENT_SET_NO":999,"REV_AT_EPOCH":12581,"BSTAR":0.00017115825,"MEAN_MOTION_DOT":7.8e-7,"MEAN_MOTION_DDOT":0},{"OBJECT_NAME":"ONEWEB-0680","OBJECT_ID":"2023-068G","EPOCH":"2025-12-01T19:57:50.169888","MEAN_MOTION":13.2182403,"ECCENTRICITY":0.00012375,"INCLINATION":87.9211,"RA_OF_ASC_NODE":283.3237,"ARG_OF_PERICENTER":72.1035,"MEAN_ANOMALY":288.0234,"EPHEMERIS_TYPE":0,"CLASSIFICATION_TYPE":"U","NORAD_CAT_ID":56716,"ELEMENT_SET_NO":999,"REV_AT_EPOCH":12502,"BSTAR":-0.00011368527,"MEAN_MOTION_DOT":-3.4e-7,"MEAN_MOTION_DDOT":0},{"OBJECT_NAME":"ONEWEB-0681","OBJECT_ID":"2023-068H","EPOCH":"2025-12-02T06:22:14.465280","MEAN_MOTION":13.21824351,"ECCENTRICITY":0.0002166,"INCLINATION":87.9205,"RA_OF_ASC_NODE":283.2534,"ARG_OF_PERICENTER":109.0342,"MEAN_ANOMALY":251.1027,"EPHEMERIS_TYPE":0,"CLASSIFICATION_TYPE":"U","NORAD_CAT_ID":56717,"ELEMENT_SET_NO":999,"REV_AT_EPOCH":12507,"BSTAR":0.00030472429,"MEAN_MOTION_DOT":1.39e-6,"MEAN_MOTION_DDOT":0},{"OBJECT_NAME":"ONEWEB-0682","OBJECT_ID":"2023-068J","EPOCH":"2025-12-01T23:16:02.127648","MEAN_MOTION":13.15550895,"ECCENTRICITY":0.00013437,"INCLINATION":87.8975,"RA_OF_ASC_NODE":298.5508,"ARG_OF_PERICENTER":80.5968,"MEAN_ANOMALY":279.5314,"EPHEMERIS_TYPE":0,"CLASSIFICATION_TYPE":"U","NORAD_CAT_ID":56718,"ELEMENT_SET_NO":999,"REV_AT_EPOCH":12352,"BSTAR":0.00036660962,"MEAN_MOTION_DOT":1.51e-6,"MEAN_MOTION_DDOT":0},{"OBJECT_NAME":"ONEWEB-0683","OBJECT_ID":"2023-068K","EPOCH":"2025-12-02T03:25:54.910560","MEAN_MOTION":13.15548526,"ECCENTRICITY":0.00015917,"INCLINATION":87.8989,"RA_OF_ASC_NODE":298.4995,"ARG_OF_PERICENTER":77.8169,"MEAN_ANOMALY":282.3139,"EPHEMERIS_TYPE":0,"CLASSIFICATION_TYPE":"U","NORAD_CAT_ID":56719,"ELEMENT_SET_NO":999,"REV_AT_EPOCH":12351,"BSTAR":-0.00012269401,"MEAN_MOTION_DOT":-3.3e-7,"MEAN_MOTION_DDOT":0},{"OBJECT_NAME":"ONEWEB-0684","OBJECT_ID":"2023-068L","EPOCH":"2025-12-01T20:19:12.664704","MEAN_MOTION":13.15550363,"ECCENTRICITY":0.00030814,"INCLINATION":87.8986,"RA_OF_ASC_NODE":298.5535,"ARG_OF_PERICENTER":65.8788,"MEAN_ANOMALY":294.2664,"EPHEMERIS_TYPE":0,"CLASSIFICATION_TYPE":"U","NORAD_CAT_ID":56720,"ELEMENT_SET_NO":999,"REV_AT_EPOCH":12330,"BSTAR":-0.00021203889,"MEAN_MOTION_DOT":-6.7e-7,"MEAN_MOTION_DDOT":0},{"OBJECT_NAME":"ONEWEB-0686","OBJECT_ID":"2023-068M","EPOCH":"2025-12-02T06:36:23.063616","MEAN_MOTION":13.15056309,"ECCENTRICITY":0.0001763,"INCLINATION":87.9028,"RA_OF_ASC_NODE":268.0116,"ARG_OF_PERICENTER":63.3183,"MEAN_ANOMALY":296.8128,"EPHEMERIS_TYPE":0,"CLASSIFICATION_TYPE":"U","NORAD_CAT_ID":56721,"ELEMENT_SET_NO":999,"REV_AT_EPOCH":12580,"BSTAR":0.00050998713,"MEAN_MOTION_DOT":2.03e-6,"MEAN_MOTION_DDOT":0}]
