ONEWEB-0637             
1 56078U 23043AJ  25336.14141240 -.00000042  00000+0 -14503-3 0  9997
2 56078  87.8979 298.5393 0001545  84.7989 275.3317 13.15549173130523
ONEWEB-0647             
1 56079U 23043AK  25335.90848521  .00000051  00000+0  10028-3 0  9993
2 56079  87.8979 298.5989 0001950  84.4310 275.7043 13.15548277130489
ONEWEB-0651             
1 56080U 23043AL  25335.90372757  .00000141  00000+0  34165-3 0  9996
2 56080  87.8980 298.5931 0001693  89.5232 270.6092 13.15549790131685
ONEWEB-0718             
1 56081U 23043AM  25336.20320553  .00000149  00000+0  36083-3 0  9997
2 56081  87.8979 298.5138 0001588  63.8220 296.3073 13.15547774130535
ONEWEB-0561             
1 56710U 23068A   25336.23011515  .00000050  00000+0  91773-4 0  9990
2 56710  87.9182 313.7301 0002132  96.0523 264.0853 13.20774100123501
ONEWEB-0668             
1 56711U 23068B   25336.21682156  .00000026  00000+0  33609-4 0  9991
2 56711  87.9048 267.9764 0001287  63.8422 296.2842 13.16589630125869
ONEWEB-0676             
1 56712U 23068C   25336.22470067  .00003141  00000+0  81762-2 0  9991
2 56712  87.9035 267.9985 0002019  82.2710 277.8650 13.16620422125788
ONEWEB-0677             
1 56713U 23068D   25335.99180045 -.00000007  00000+0 -48371-4 0  9990
2 56713  87.9197 313.7597 0001758  89.9079 270.2256 13.20770327123779
ONEWEB-0678             
1 56714U 23068E   25335.94334393 -.00000076  00000+0 -23635-3 0  9994
2 56714  87.8984 298.5405 0002140  82.0479 278.0894 13.15547929123357
ONEWEB-0679             
1 56715U 23068F   25336.25954129  .00000078  00000+0  17116-3 0  9992
2 56715  87.9030 267.9757 0001227  85.4591 274.6680 13.16593096125813
ONEWEB-0680             
1 56716U 23068G   25335.83183067 -.00000034  00000+0 -11369-3 0  9999
2 56716  87.9211 283.3237 0001237  72.1035 288.0234 13.21824030125025
ONEWEB-0681             
1 56717U 23068H   25336.26544520  .00000139  00000+0  30472-3 0  9993
2 56717  87.9205 283.2534 0002166 109.0342 251.1027 13.21824351125073
ONEWEB-0682             
1 56718U 23068J   25335.96946907  .00000151  00000+0  36661-3 0  9995
2 56718  87.8975 298.5508 0001343  80.5968 279.5314 13.15550895123523
ONEWEB-0683             
1 56719U 23068K   25336.14299665 -.00000033  00000+0 -12269-3 0  9998
2 56719  87.8989 298.4995 0001591  77.8169 282.3139 13.15548526123519
ONEWEB-0684             
1 56720U 23068L   25335.84667436 -.00000067  00000+0 -21204-3 0  9997
2 56720  87.8986 298.5535 0003081  65.8788 294.2664 13.15550363123303
ONEWEB-0686             
1 56721U 23068M   25336.27526694  .00000203  00000+0  50999-3 0  9999
2 56721  87.9028 268.0116 0001763  63.3183 296.8128 13.15056309125807
